start=new Date('2023-02-20T00:00:00.000Z').valueOf();
sats=[{"APOAPSIS":"540.658","ECCENTRICITY":"0.00013900","EPHEMERIS_TYPE":"0","RCS_SIZE":"LARGE","FILE":"3813134","REF_FRAME":"TEME","NORAD_CAT_ID":"50187","COUNTRY_CODE":"US","MEAN_MOTION_DDOT":"0.0000000000000","SITE":"AFWTR","CENTER_NAME":"EARTH","SEMIMAJOR_AXIS":"6917.832","CLASSIFICATION_TYPE":"U","TLE_LINE1":"1 50187U 21125AH  23050.88787779  .00007468  00000-0  48658-3 0  9992","OBJECT_TYPE":"PAYLOAD","TLE_LINE2":"2 50187  53.2149 199.1692 0001390  93.7597 266.3554 15.08855978 65498","DECAY_DATE":null,"INCLINATION":"53.2149","MEAN_ELEMENT_THEORY":"SGP4","OBJECT_NAME":"STARLINK-3272","GP_ID":"226081115","MEAN_MOTION_DOT":"0.00007468","ELEMENT_SET_NO":"999","PERIAPSIS":"538.735","REV_AT_EPOCH":"6549","PERIOD":"95.437","RA_OF_ASC_NODE":"199.1692","OBJECT_ID":"2021-125AH","ARG_OF_PERICENTER":"93.7597","MEAN_MOTION":"15.08855978","EPOCH":"2023-02-19T21:18:32.641056","LAUNCH_DATE":"2021-12-18","BSTAR":"0.00048658000000","MEAN_ANOMALY":"266.3554","TIME_SYSTEM":"UTC"},{"BSTAR":"0.00153400000000","MEAN_ANOMALY":"148.8640","TIME_SYSTEM":"UTC","ARG_OF_PERICENTER":"211.2234","MEAN_MOTION":"15.12820724","EPOCH":"2023-02-19T16:13:02.582976","LAUNCH_DATE":"2021-12-18","MEAN_MOTION_DOT":"0.00027061","PERIAPSIS":"526.203","ELEMENT_SET_NO":"999","REV_AT_EPOCH":"6547","RA_OF_ASC_NODE":"199.2487","PERIOD":"95.186","OBJECT_ID":"2021-125AJ","GP_ID":"226017913","OBJECT_TYPE":"PAYLOAD","TLE_LINE1":"1 50188U 21125AJ  23050.67572434  .00027061  00000-0  15340-2 0  9992","TLE_LINE2":"2 50188  53.2167 199.2487 0002030 211.2234 148.8640 15.12820724 65473","DECAY_DATE":null,"MEAN_ELEMENT_THEORY":"SGP4","INCLINATION":"53.2167","OBJECT_NAME":"STARLINK-3275","CENTER_NAME":"EARTH","SITE":"AFWTR","SEMIMAJOR_AXIS":"6905.740","CLASSIFICATION_TYPE":"U","COUNTRY_CODE":"US","MEAN_MOTION_DDOT":"0.0000000000000","APOAPSIS":"529.006","ECCENTRICITY":"0.00020300","EPHEMERIS_TYPE":"0","RCS_SIZE":"LARGE","FILE":"3811312","REF_FRAME":"TEME","NORAD_CAT_ID":"50188"},{"EPOCH":"2023-02-19T16:41:40.374816","LAUNCH_DATE":"2021-12-18","MEAN_MOTION":"15.08834015","ARG_OF_PERICENTER":"85.4690","TIME_SYSTEM":"UTC","BSTAR":"0.00019436000000","MEAN_ANOMALY":"274.6447","GP_ID":"226017684","OBJECT_ID":"2021-125AK","RA_OF_ASC_NODE":"210.0355","PERIOD":"95.438","MEAN_MOTION_DOT":"0.00002806","REV_AT_EPOCH":"6794","PERIAPSIS":"538.886","ELEMENT_SET_NO":"999","CLASSIFICATION_TYPE":"U","SEMIMAJOR_AXIS":"6917.899","CENTER_NAME":"EARTH","SITE":"AFWTR","MEAN_ELEMENT_THEORY":"SGP4","INCLINATION":"53.2143","OBJECT_NAME":"STARLINK-3276","TLE_LINE2":"2 50189  53.2143 210.0355 0001269  85.4690 274.6447 15.08834015 67944","DECAY_DATE":null,"OBJECT_TYPE":"PAYLOAD","TLE_LINE1":"1 50189U 21125AK  23050.69560619  .00002806  00000-0  19436-3 0  9998","RCS_SIZE":"LARGE","FILE":"3811312","NORAD_CAT_ID":"50189","REF_FRAME":"TEME","EPHEMERIS_TYPE":"0","ECCENTRICITY":"0.00012690","APOAPSIS":"540.642","MEAN_MOTION_DDOT":"0.0000000000000","COUNTRY_CODE":"US"},{"EPHEMERIS_TYPE":"0","RCS_SIZE":"LARGE","FILE":"3811610","REF_FRAME":"TEME","NORAD_CAT_ID":"50190","APOAPSIS":"540.636","ECCENTRICITY":"0.00012970","COUNTRY_CODE":"US","MEAN_MOTION_DDOT":"0.0000000000000","SEMIMAJOR_AXIS":"6917.874","CLASSIFICATION_TYPE":"U","SITE":"AFWTR","CENTER_NAME":"EARTH","MEAN_ELEMENT_THEORY":"SGP4","INCLINATION":"53.2156","OBJECT_NAME":"STARLINK-3268","TLE_LINE1":"1 50190U 21125AL  23050.61188196  .00002506  00000-0  17549-3 0  9998","OBJECT_TYPE":"PAYLOAD","TLE_LINE2":"2 50190  53.2156 200.4127 0001297  81.3399 278.7740 15.08842054 68542","DECAY_DATE":null,"GP_ID":"226046485","RA_OF_ASC_NODE":"200.4127","PERIOD":"95.437","OBJECT_ID":"2021-125AL","MEAN_MOTION_DOT":"0.00002506","REV_AT_EPOCH":"6854","PERIAPSIS":"538.842","ELEMENT_SET_NO":"999","MEAN_MOTION":"15.08842054","EPOCH":"2023-02-19T14:41:06.601344","LAUNCH_DATE":"2021-12-18","ARG_OF_PERICENTER":"81.3399","TIME_SYSTEM":"UTC","BSTAR":"0.00017549000000","MEAN_ANOMALY":"278.7740"},{"GP_ID":"226047736","PERIAPSIS":"539.021","ELEMENT_SET_NO":"999","REV_AT_EPOCH":"6826","MEAN_MOTION_DOT":"0.00000748","OBJECT_ID":"2021-125AM","RA_OF_ASC_NODE":"220.3683","PERIOD":"95.438","ARG_OF_PERICENTER":"85.3870","LAUNCH_DATE":"2021-12-18","EPOCH":"2023-02-19T14:54:21.769920","MEAN_MOTION":"15.08832389","MEAN_ANOMALY":"274.7245","BSTAR":"0.00006507000000","TIME_SYSTEM":"UTC","ECCENTRICITY":"0.00010810","APOAPSIS":"540.516","NORAD_CAT_ID":"50191","REF_FRAME":"TEME","FILE":"3811610","RCS_SIZE":"LARGE","EPHEMERIS_TYPE":"0","MEAN_MOTION_DDOT":"0.0000000000000","COUNTRY_CODE":"US","CENTER_NAME":"EARTH","SITE":"AFWTR","CLASSIFICATION_TYPE":"U","SEMIMAJOR_AXIS":"6917.904","DECAY_DATE":null,"TLE_LINE2":"2 50191  53.2160 220.3683 0001081  85.3870 274.7245 15.08832389 68260","TLE_LINE1":"1 50191U 21125AM  23050.62108530  .00000748  00000-0  65070-4 0  9993","OBJECT_TYPE":"PAYLOAD","OBJECT_NAME":"STARLINK-3273","MEAN_ELEMENT_THEORY":"SGP4","INCLINATION":"53.2160"},{"GP_ID":"226047985","MEAN_MOTION_DOT":"0.00002428","PERIAPSIS":"538.925","REV_AT_EPOCH":"6854","ELEMENT_SET_NO":"999","PERIOD":"95.438","RA_OF_ASC_NODE":"200.4289","OBJECT_ID":"2021-125AN","ARG_OF_PERICENTER":"85.0057","MEAN_MOTION":"15.08840747","EPOCH":"2023-02-19T14:35:48.862752","LAUNCH_DATE":"2021-12-18","BSTAR":"0.00017057000000","MEAN_ANOMALY":"275.1070","TIME_SYSTEM":"UTC","APOAPSIS":"540.561","ECCENTRICITY":"0.00011820","EPHEMERIS_TYPE":"0","RCS_SIZE":"LARGE","FILE":"3811610","REF_FRAME":"TEME","NORAD_CAT_ID":"50192","COUNTRY_CODE":"US","MEAN_MOTION_DDOT":"0.0000000000000","CENTER_NAME":"EARTH","SITE":"AFWTR","SEMIMAJOR_AXIS":"6917.878","CLASSIFICATION_TYPE":"U","OBJECT_TYPE":"PAYLOAD","TLE_LINE1":"1 50192U 21125AN  23050.60820443  .00002428  00000-0  17057-3 0  9994","TLE_LINE2":"2 50192  53.2138 200.4289 0001182  85.0057 275.1070 15.08840747 68542","DECAY_DATE":null,"INCLINATION":"53.2138","MEAN_ELEMENT_THEORY":"SGP4","OBJECT_NAME":"STARLINK-3259"},{"MEAN_MOTION_DDOT":"0.0000000000000","COUNTRY_CODE":"US","ECCENTRICITY":"0.00011270","APOAPSIS":"540.532","NORAD_CAT_ID":"50193","REF_FRAME":"TEME","FILE":"3811311","RCS_SIZE":"LARGE","EPHEMERIS_TYPE":"0","DECAY_DATE":null,"TLE_LINE2":"2 50193  53.2145 200.0819 0001127  82.5250 277.5870 15.08837724 68075","TLE_LINE1":"1 50193U 21125AP  23050.68548079  .00001805  00000-0  13146-3 0  9998","OBJECT_TYPE":"PAYLOAD","OBJECT_NAME":"STARLINK-3261","INCLINATION":"53.2145","MEAN_ELEMENT_THEORY":"SGP4","CENTER_NAME":"EARTH","SITE":"AFWTR","CLASSIFICATION_TYPE":"U","SEMIMAJOR_AXIS":"6917.887","ELEMENT_SET_NO":"999","PERIAPSIS":"538.973","REV_AT_EPOCH":"6807","MEAN_MOTION_DOT":"0.00001805","OBJECT_ID":"2021-125AP","RA_OF_ASC_NODE":"200.0819","PERIOD":"95.438","GP_ID":"226017666","MEAN_ANOMALY":"277.5870","BSTAR":"0.00013146000000","TIME_SYSTEM":"UTC","ARG_OF_PERICENTER":"82.5250","LAUNCH_DATE":"2021-12-18","EPOCH":"2023-02-19T16:27:05.540256","MEAN_MOTION":"15.08837724"},{"ARG_OF_PERICENTER":"85.1900","MEAN_MOTION":"15.08842747","LAUNCH_DATE":"2021-12-18","EPOCH":"2023-02-19T17:41:16.862208","MEAN_ANOMALY":"274.9241","BSTAR":"0.00023568000000","TIME_SYSTEM":"UTC","GP_ID":"226081127","PERIAPSIS":"538.834","REV_AT_EPOCH":"6808","ELEMENT_SET_NO":"999","MEAN_MOTION_DOT":"0.00003465","RA_OF_ASC_NODE":"199.8492","PERIOD":"95.437","OBJECT_ID":"2021-125AQ","SITE":"AFWTR","CENTER_NAME":"EARTH","SEMIMAJOR_AXIS":"6917.872","CLASSIFICATION_TYPE":"U","TLE_LINE1":"1 50194U 21125AQ  23050.73700072  .00003465  00000-0  23568-3 0  9991","OBJECT_TYPE":"PAYLOAD","DECAY_DATE":null,"TLE_LINE2":"2 50194  53.2148 199.8492 0001305  85.1900 274.9241 15.08842747 68085","OBJECT_NAME":"STARLINK-3269","MEAN_ELEMENT_THEORY":"SGP4","INCLINATION":"53.2148","APOAPSIS":"540.640","ECCENTRICITY":"0.00013050","EPHEMERIS_TYPE":"0","REF_FRAME":"TEME","NORAD_CAT_ID":"50194","RCS_SIZE":"LARGE","FILE":"3813135","COUNTRY_CODE":"US","MEAN_MOTION_DDOT":"0.0000000000000"},{"MEAN_MOTION_DDOT":"0.0000000000000","COUNTRY_CODE":"US","FILE":"3811610","RCS_SIZE":"LARGE","REF_FRAME":"TEME","NORAD_CAT_ID":"50195","EPHEMERIS_TYPE":"0","ECCENTRICITY":"0.00012820","APOAPSIS":"540.634","MEAN_ELEMENT_THEORY":"SGP4","INCLINATION":"53.2145","OBJECT_NAME":"STARLINK-3266","TLE_LINE2":"2 50195  53.2145 200.3958 0001282  84.4526 275.6612 15.08839311 68542","DECAY_DATE":null,"OBJECT_TYPE":"PAYLOAD","TLE_LINE1":"1 50195U 21125AR  23050.61556005  .00002955  00000-0  20369-3 0  9993","CLASSIFICATION_TYPE":"U","SEMIMAJOR_AXIS":"6917.882","SITE":"AFWTR","CENTER_NAME":"EARTH","OBJECT_ID":"2021-125AR","RA_OF_ASC_NODE":"200.3958","PERIOD":"95.438","MEAN_MOTION_DOT":"0.00002955","PERIAPSIS":"538.861","REV_AT_EPOCH":"6854","ELEMENT_SET_NO":"999","GP_ID":"226047237","TIME_SYSTEM":"UTC","BSTAR":"0.00020369000000","MEAN_ANOMALY":"275.6612","EPOCH":"2023-02-19T14:46:24.388320","LAUNCH_DATE":"2021-12-18","MEAN_MOTION":"15.08839311","ARG_OF_PERICENTER":"84.4526"},{"SEMIMAJOR_AXIS":"6917.820","CLASSIFICATION_TYPE":"U","CENTER_NAME":"EARTH","SITE":"AFWTR","INCLINATION":"53.2150","MEAN_ELEMENT_THEORY":"SGP4","OBJECT_NAME":"STARLINK-3263","TLE_LINE1":"1 50196U 21125AS  23050.66338997  .00007368  00000-0  48026-3 0  9990","OBJECT_TYPE":"PAYLOAD","TLE_LINE2":"2 50196  53.2150 200.1754 0000841  95.9793 264.1295 15.08859833 68073","DECAY_DATE":null,"EPHEMERIS_TYPE":"0","RCS_SIZE":"LARGE","FILE":"3811313","NORAD_CAT_ID":"50196","REF_FRAME":"TEME","APOAPSIS":"540.267","ECCENTRICITY":"0.00008410","COUNTRY_CODE":"US","MEAN_MOTION_DDOT":"0.0000000000000","MEAN_MOTION":"15.08859833","EPOCH":"2023-02-19T15:55:16.893408","LAUNCH_DATE":"2021-12-18","ARG_OF_PERICENTER":"95.9793","TIME_SYSTEM":"UTC","BSTAR":"0.00048026000000","MEAN_ANOMALY":"264.1295","GP_ID":"226017695","RA_OF_ASC_NODE":"200.1754","PERIOD":"95.436","OBJECT_ID":"2021-125AS","MEAN_MOTION_DOT":"0.00007368","PERIAPSIS":"539.103","ELEMENT_SET_NO":"999","REV_AT_EPOCH":"6807"}];
